[{"OBJECT_NAME":"STARLINK-31354","OBJECT_ID":"2024-027M","EPOCH":"2026-03-09T22:28:26.680224","MEAN_MOTION":15.30185838,"ECCENTRICITY":0.00010263,"INCLINATION":53.1608,"RA_OF_ASC_NODE":308.6501,"ARG_OF_PERICENTER":103.1527,"MEAN_ANOMALY":256.9589,"EPHEMERIS_TYPE":0,"CLASSIFICATION_TYPE":"U","NORAD_CAT_ID":58942,"ELEMENT_SET_NO":999,"REV_AT_EPOCH":11736,"BSTAR":0.00013102381,"MEAN_MOTION_DOT":3.522e-5,"MEAN_MOTION_DDOT":0},{"OBJECT_NAME":"TRANSPORTER-1 OBJECT M","OBJECT_ID":"2021-006M","EPOCH":"2026-03-09T22:05:37.843296","MEAN_MOTION":15.3227845,"ECCENTRICITY":0.00102759,"INCLINATION":97.2377,"RA_OF_ASC_NODE":116.7915,"ARG_OF_PERICENTER":187.5492,"MEAN_ANOMALY":172.5597,"EPHEMERIS_TYPE":0,"CLASSIFICATION_TYPE":"U","NORAD_CAT_ID":47424,"ELEMENT_SET_NO":999,"REV_AT_EPOCH":28439,"BSTAR":0.00023985652,"MEAN_MOTION_DOT":7.411e-5,"MEAN_MOTION_DDOT":0}]
